[{"OBJECT_NAME":"STARLINK-3848","OBJECT_ID":"2022-045AH","EPOCH":"2026-03-09T15:40:23.686752","MEAN_MOTION":15.08831406,"ECCENTRICITY":0.00013114,"INCLINATION":53.2179,"RA_OF_ASC_NODE":189.286,"ARG_OF_PERICENTER":72.931,"MEAN_ANOMALY":287.1826,"EPHEMERIS_TYPE":0,"CLASSIFICATION_TYPE":"U","NORAD_CAT_ID":52362,"ELEMENT_SET_NO":999,"REV_AT_EPOCH":21591,"BSTAR":-7.3986771e-5,"MEAN_MOTION_DOT":-1.465e-5,"MEAN_MOTION_DDOT":0},{"OBJECT_NAME":"FREGAT DEB","OBJECT_ID":"2011-037BR","EPOCH":"2026-03-08T16:41:19.114368","MEAN_MOTION":11.55431875,"ECCENTRICITY":0.16348363,"INCLINATION":51.442,"RA_OF_ASC_NODE":302.7911,"ARG_OF_PERICENTER":221.4876,"MEAN_ANOMALY":124.9869,"EPHEMERIS_TYPE":0,"CLASSIFICATION_TYPE":"U","NORAD_CAT_ID":45831,"ELEMENT_SET_NO":999,"REV_AT_EPOCH":24228,"BSTAR":0.0010461944,"MEAN_MOTION_DOT":1.975e-5,"MEAN_MOTION_DDOT":0}]
